[{"OBJECT_NAME":"STARLINK-3564","OBJECT_ID":"2022-041AT","EPOCH":"2026-03-09T09:10:53.283360","MEAN_MOTION":15.08831694,"ECCENTRICITY":7.622e-5,"INCLINATION":53.2205,"RA_OF_ASC_NODE":90.4934,"ARG_OF_PERICENTER":117.999,"MEAN_ANOMALY":242.1079,"EPHEMERIS_TYPE":0,"CLASSIFICATION_TYPE":"U","NORAD_CAT_ID":52302,"ELEMENT_SET_NO":999,"REV_AT_EPOCH":21459,"BSTAR":0.00014227038,"MEAN_MOTION_DOT":1.977e-5,"MEAN_MOTION_DDOT":0},{"OBJECT_NAME":"NANOFF A","OBJECT_ID":"2023-185T","EPOCH":"2026-03-09T23:34:34.415328","MEAN_MOTION":15.11542977,"ECCENTRICITY":0.00086783,"INCLINATION":97.5359,"RA_OF_ASC_NODE":137.8345,"ARG_OF_PERICENTER":292.8968,"MEAN_ANOMALY":67.1346,"EPHEMERIS_TYPE":0,"CLASSIFICATION_TYPE":"U","NORAD_CAT_ID":58810,"ELEMENT_SET_NO":999,"REV_AT_EPOCH":11805,"BSTAR":0.00027314844,"MEAN_MOTION_DOT":4.57e-5,"MEAN_MOTION_DDOT":0}]
